[
    {
        "Altitude(m)": 717878.2223198845,
        "Argument of Periapsis(deg)": 0.009112096949301655,
        "Eccentricity": 0.0,
        "Inclination(deg)": 45.0,
        "Latitude(deg)": -45.144517088664124,
        "Longitude(deg)": -94.12575230308963,
        "Mean Anomaly(deg)": -88.9552266820153,
        "RAAN(deg)": 94.99139844683344,
        "Satellite Name": "Constellation 1 434",
        "Satellite Number": 434,
        "Semi-Major Axis(m)": 7083131.272910544,
        "Time(s)": 152
    },
    {
        "Altitude(m)": 717877.7437473772,
        "Argument of Periapsis(deg)": 0.009172044955547059,
        "Eccentricity": 0.0,
        "Inclination(deg)": 45.0,
        "Latitude(deg)": -45.14337212468812,
        "Longitude(deg)": -94.04425401796225,
        "Mean Anomaly(deg)": -88.89452554176542,
        "RAAN(deg)": 94.99134185766788,
        "Satellite Name": "Constellation 1 434",
        "Satellite Number": 434,
        "Semi-Major Axis(m)": 7083131.272910544,
        "Time(s)": 153
    },
    {
        "Altitude(m)": 717877.2387844408,
        "Argument of Periapsis(deg)": 0.009231992961792466,
        "Eccentricity": 0.0,
        "Inclination(deg)": 45.0,
        "Latitude(deg)": -45.14216302235324,
        "Longitude(deg)": -93.96275924805052,
        "Mean Anomaly(deg)": -88.83382440151556,
        "RAAN(deg)": 94.99128526850231,
        "Satellite Name": "Constellation 1 434",
        "Satellite Number": 434,
        "Semi-Major Axis(m)": 7083131.272910544,
        "Time(s)": 154
    },
    {
        "Altitude(m)": 717876.7074329108,
        "Argument of Periapsis(deg)": 0.009291940968037872,
        "Eccentricity": 0.0,
        "Inclination(deg)": 45.0,
        "Latitude(deg)": -45.14088978701058,
        "Longitude(deg)": -93.88126818459193,
        "Mean Anomaly(deg)": -88.77312326126567,
        "RAAN(deg)": 94.99122867933673,
        "Satellite Name": "Constellation 1 434",
        "Satellite Number": 434,
        "Semi-Major Axis(m)": 7083131.272910544,
        "Time(s)": 155
    },
    {
        "Altitude(m)": 717876.1496947373,
        "Argument of Periapsis(deg)": 0.009351888974283276,
        "Eccentricity": 0.0,
        "Inclination(deg)": 45.0,
        "Latitude(deg)": -45.139552424294415,
        "Longitude(deg)": -93.79978118685526,
        "Mean Anomaly(deg)": -88.7124221210157,
        "RAAN(deg)": 94.99117209017116,
        "Satellite Name": "Constellation 1 434",
        "Satellite Number": 434,
        "Semi-Major Axis(m)": 7083131.272910544,
        "Time(s)": 156
    },
    {
        "Altitude(m)": 717875.5655719537,
        "Argument of Periapsis(deg)": 0.00941183698052868,
        "Eccentricity": 0.0,
        "Inclination(deg)": 45.0,
        "Latitude(deg)": -45.138150940122365,
        "Longitude(deg)": -93.71829810974783,
        "Mean Anomaly(deg)": -88.65172098076584,
        "RAAN(deg)": 94.99111550100561,
        "Satellite Name": "Constellation 1 434",
        "Satellite Number": 434,
        "Semi-Major Axis(m)": 7083131.272910544,
        "Time(s)": 157
    },
    {
        "Altitude(m)": 717874.9550667091,
        "Argument of Periapsis(deg)": 0.009471784986774088,
        "Eccentricity": 0.0,
        "Inclination(deg)": 45.0,
        "Latitude(deg)": -45.136685340694754,
        "Longitude(deg)": -93.6368193123953,
        "Mean Anomaly(deg)": -88.59101984051593,
        "RAAN(deg)": 94.99105891184003,
        "Satellite Name": "Constellation 1 434",
        "Satellite Number": 434,
        "Semi-Major Axis(m)": 7083131.272910544,
        "Time(s)": 158
    },
    {
        "Altitude(m)": 717874.3181812327,
        "Argument of Periapsis(deg)": 0.009531732993019492,
        "Eccentricity": 0.0,
        "Inclination(deg)": 45.0,
        "Latitude(deg)": -45.13515563249495,
        "Longitude(deg)": -93.55534498574994,
        "Mean Anomaly(deg)": -88.53031870026608,
        "RAAN(deg)": 94.99100232267446,
        "Satellite Name": "Constellation 1 434",
        "Satellite Number": 434,
        "Semi-Major Axis(m)": 7083131.272910544,
        "Time(s)": 159
    },
    {
        "Altitude(m)": 717873.654917855,
        "Argument of Periapsis(deg)": 0.009591680999264898,
        "Eccentricity": 0.0,
        "Inclination(deg)": 45.0,
        "Latitude(deg)": -45.13356182228897,
        "Longitude(deg)": -93.47387532068369,
        "Mean Anomaly(deg)": -88.4696175600161,
        "RAAN(deg)": 94.99094573350888,
        "Satellite Name": "Constellation 1 434",
        "Satellite Number": 434,
        "Semi-Major Axis(m)": 7083131.272910544,
        "Time(s)": 160
    },
    {
        "Altitude(m)": 717872.9652790134,
        "Argument of Periapsis(deg)": 0.009651629005510304,
        "Eccentricity": 0.0,
        "Inclination(deg)": 45.0,
        "Latitude(deg)": -45.13190391712547,
        "Longitude(deg)": -93.39241050798582,
        "Mean Anomaly(deg)": -88.40891641976624,
        "RAAN(deg)": 94.99088914434331,
        "Satellite Name": "Constellation 1 434",
        "Satellite Number": 434,
        "Semi-Major Axis(m)": 7083131.272910544,
        "Time(s)": 161
    },
    {
        "Altitude(m)": 717872.2492672316,
        "Argument of Periapsis(deg)": 0.00971157701175571,
        "Eccentricity": 0.0,
        "Inclination(deg)": 45.0,
        "Latitude(deg)": -45.13018192433549,
        "Longitude(deg)": -93.31095073835827,
        "Mean Anomaly(deg)": -88.34821527951634,
        "RAAN(deg)": 94.99083255517773,
        "Satellite Name": "Constellation 1 434",
        "Satellite Number": 434,
        "Semi-Major Axis(m)": 7083131.272910544,
        "Time(s)": 162
    },
    {
        "Altitude(m)": 717871.506885134,
        "Argument of Periapsis(deg)": 0.009771525018001118,
        "Eccentricity": 0.0,
        "Inclination(deg)": 45.0,
        "Latitude(deg)": -45.12839585153235,
        "Longitude(deg)": -93.22949637051066,
        "Mean Anomaly(deg)": -88.28751413926643,
        "RAAN(deg)": 94.99077596601218,
        "Satellite Name": "Constellation 1 434",
        "Satellite Number": 434,
        "Semi-Major Axis(m)": 7083131.272910544,
        "Time(s)": 163
    },
    {
        "Altitude(m)": 717870.7381354448,
        "Argument of Periapsis(deg)": 0.00983147302424652,
        "Eccentricity": 0.0,
        "Inclination(deg)": 45.0,
        "Latitude(deg)": -45.126545706611616,
        "Longitude(deg)": -93.1480472587671,
        "Mean Anomaly(deg)": -88.22681299901657,
        "RAAN(deg)": 94.99071937684661,
        "Satellite Name": "Constellation 1 434",
        "Satellite Number": 434,
        "Semi-Major Axis(m)": 7083131.272910544,
        "Time(s)": 164
    },
    {
        "Altitude(m)": 717869.9430209871,
        "Argument of Periapsis(deg)": 0.009891421030491928,
        "Eccentricity": 0.0,
        "Inclination(deg)": 45.0,
        "Latitude(deg)": -45.12463149775065,
        "Longitude(deg)": -93.06660376164663,
        "Mean Anomaly(deg)": -88.16611185876667,
        "RAAN(deg)": 94.99066278768103,
        "Satellite Name": "Constellation 1 434",
        "Satellite Number": 434,
        "Semi-Major Axis(m)": 7083131.272910544,
        "Time(s)": 165
    },
    {
        "Altitude(m)": 717869.121544672,
        "Argument of Periapsis(deg)": 0.009951369036737332,
        "Eccentricity": 0.0,
        "Inclination(deg)": 45.0,
        "Latitude(deg)": -45.122653233408634,
        "Longitude(deg)": -92.98516606947098,
        "Mean Anomaly(deg)": -88.10541071851675,
        "RAAN(deg)": 94.99060619851547,
        "Satellite Name": "Constellation 1 434",
        "Satellite Number": 434,
        "Semi-Major Axis(m)": 7083131.272910544,
        "Time(s)": 166
    },
    {
        "Altitude(m)": 717868.2737095228,
        "Argument of Periapsis(deg)": 0.010011317042982738,
        "Eccentricity": 0.0,
        "Inclination(deg)": 45.0,
        "Latitude(deg)": -45.12061092232638,
        "Longitude(deg)": -92.90373437245825,
        "Mean Anomaly(deg)": -88.04470957826685,
        "RAAN(deg)": 94.99054960934991,
        "Satellite Name": "Constellation 1 434",
        "Satellite Number": 434,
        "Semi-Major Axis(m)": 7083131.272910544,
        "Time(s)": 167
    },
    {
        "Altitude(m)": 717867.3995186454,
        "Argument of Periapsis(deg)": 0.010071265049228144,
        "Eccentricity": 0.0,
        "Inclination(deg)": 45.0,
        "Latitude(deg)": -45.118504573526074,
        "Longitude(deg)": -92.82230886071947,
        "Mean Anomaly(deg)": -87.98400843801693,
        "RAAN(deg)": 94.99049302018433,
        "Satellite Name": "Constellation 1 434",
        "Satellite Number": 434,
        "Semi-Major Axis(m)": 7083131.272910544,
        "Time(s)": 168
    },
    {
        "Altitude(m)": 717866.4989752508,
        "Argument of Periapsis(deg)": 0.01013121305547355,
        "Eccentricity": 0.0,
        "Inclination(deg)": 45.0,
        "Latitude(deg)": -45.11633419631117,
        "Longitude(deg)": -92.74088972425567,
        "Mean Anomaly(deg)": -87.92330729776707,
        "RAAN(deg)": 94.99043643101876,
        "Satellite Name": "Constellation 1 434",
        "Satellite Number": 434,
        "Semi-Major Axis(m)": 7083131.272910544,
        "Time(s)": 169
    },
    {
        "Altitude(m)": 717865.5720826441,
        "Argument of Periapsis(deg)": 0.010191161061718957,
        "Eccentricity": 0.0,
        "Inclination(deg)": 45.0,
        "Latitude(deg)": -45.114099800266104,
        "Longitude(deg)": -92.65947715295377,
        "Mean Anomaly(deg)": -87.86260615751715,
        "RAAN(deg)": 94.99037984185318,
        "Satellite Name": "Constellation 1 434",
        "Satellite Number": 434,
        "Semi-Major Axis(m)": 7083131.272910544,
        "Time(s)": 170
    }
]